,no,location,lat,lng,type,districtL,districtS,address,provider,parkingNo,img
0,1,Temple Mall North,22.3425903320313,114.190719604492,SemiQuick,Kowloon,Wong Tai Sin,"Temple Mall North Carpark, Level 3,
136 Lung Cheung Rd, Wong Tai Sin, Kln",CLP,320-322,/EV/PublishingImages/common/map/map_thumb/Entrance_Lung%20Cheung.jpg
1,2,Fu Shing Building,22.4420719146729,114.027671813965,SemiQuick,New Territories,Yuen Long,"Fu Shing Building Carpark, 1/F
9 Sai Ching Street, Yuen Long, NT",CLP,33-35,/EV/PublishingImages/common/map/map_thumb/Entrance_Fu%20Shing%20Building.jpg
2,3,Lok Fu Plaza Carpark,22.3386573791504,114.186103820801,SemiQuick,Kowloon,Wong Tai Sin,"Lok Fu Plaza Carpark, G/F
Wang Tau Hom, Wong Tai Sin, Kln",CLP,67-69,/EV/PublishingImages/common/map/map_thumb/Entrance_Lo%20Fu_large.jpg
3,4,MegaBox,22.3203277587891,114.208526611328,SemiQuick,Kowloon,Kwun Tong,"MegaBox Carpark,  B/F
38 Wang Chiu Road, Kowloon Bay, Kln",CLP,139-141,/EV/PublishingImages/common/map/map_thumb/Megabox.jpg
4,5,LOHAS Park - the Capitol,22.2961540222168,114.272148132324,Standard,New Territories,Sai Kung,"Carpark, G/F, The Capitol,
LOHAS Park, Tseung Kwan O, NT",CLP,V14-V16,/EV/PublishingImages/common/map/map_thumb/Entrance_lohas_large.jpg
5,6,Shek Lei Shopping Centre II,22.3658618927002,114.140121459961,SemiQuick,New Territories,Kwai Tsing,"Shek Lei Shopping Centre Phase II Carpark,  4/F
Shek Lei Estate, Kwai Chung, NT",CLP,33-35,/EV/PublishingImages/common/map/map_thumb/Entrance_Shek%20lei%20shopping%20ctr.jpg
6,7,Fu Tung Shopping Centre,22.2882328033447,113.941909790039,SemiQuick,Outlying Islands,Outlying Islands,"Fu Tung Shopping Centre Carpark,  G/F
Fu Ting Estate, Tung Chung, Lantau, NT",CLP,1001-1003,/EV/PublishingImages/common/map/map_thumb/Entrance_Fu%20Tung_large.jpg
7,8,Landmark North,22.5029144287109,114.127586364746,Standard,New Territories,North,"Landmark North Carpark, B3/F 
39 Lung Sum Avenue, Sheung Shui, NT",CLP,79-81,/EV/PublishingImages/common/map/map_thumb/Entrance_Landmark%20north_large.jpg
8,9,Ocean Terminal,22.2956161499023,114.169357299805,SemiQuick,Kowloon,Yau Tsim Mong,"Ocean Terminal Carpark (Harbour City), 4/F
3-27 Canton Rd, Tsimshatsui, Kln",CLP,"1250-1251, 1305",/EV/PublishingImages/common/map/map_thumb/Entrance_Ocean%20Terminal_large.jpg
9,10,Tai Wo Shopping Centre,22.4504833221436,114.160835266113,SemiQuick,New Territories,Tai Po,"Tai Wo Shopping Centre, 1/F Carpark
Tai Wo Estate, Tai Po, NT",CLP,B1-B3,/EV/PublishingImages/common/map/map_thumb/Entrance_tai%20wo_large.jpg
10,11,Fanling Town Centre,22.4922847747803,114.138900756836,SemiQuick,New Territories,North,"Fanling Town Centre Carpark, B/F
18 Fanling Station Road, Fanling, NT",CLP,22-24,/EV/PublishingImages/common/map/map_thumb/Fanling%20Town%20Centre.jpg
11,12,Olympian City 2,22.3152523040771,114.162506103516,SemiQuick,Kowloon,Yau Tsim Mong,"Olympian City 2 Carpark, G/F
18 Hoi Ting Road, West Kowloon",CLP,"33,35",/EV/PublishingImages/common/map/map_thumb/Entrance_Olympian%20city%202.jpg
12,13,Festival Walk,22.338134765625,114.17391204834,Standard,Kowloon,Sham Shui Po,"Festival Walk Carpark, P1/F,
80 Tat Chee Avenue, Kowloon Tong, Kln",CLP,P15-P16,/EV/PublishingImages/common/map/map_thumb/Festival%20Walk.jpg
13,14,The Long Beach,22.3194198608398,114.15657043457,SemiQuick,Kowloon,Yau Tsim Mong,"The Long Beach Carpark, L1/F 
8 Hoi Fai Road, West Kowloon",CLP,107-108,/EV/PublishingImages/common/map/map_thumb/Entrance_long%20beach_large.jpg
14,15,Kwun Tong Plaza,22.3108863830566,114.225875854492,Standard,Kowloon,Kwun Tong,"Kwun Tong Plaza Carpark, 6/F,
68 Hoi Yuen Road, Kwun Tong, Kln",CLP,6P10,/EV/PublishingImages/common/map/map_thumb/Entrance_Kwun%20Tong%20Plaza_large.jpg
15,16,Gold Coast Piazza,22.3718738555908,113.993019104004,SemiQuick,New Territories,Tuen Mun,"Gold Coast Piazza Carpark, B/F, 
1 Castle Peak Road, Castle Peak Bay, NT",CLP,189-190,/EV/PublishingImages/common/map/map_thumb/Entrance_Gold%20Coast%20Piazza.jpg
16,17,China Hong Kong City,22.3010005950928,114.167915344238,Standard,Kowloon,Yau Tsim Mong,"China Hong Kong City Carpark, B/F
33 Canton Road, Tsim Sha Tsui, Kln",CLP,B111,/EV/PublishingImages/common/map/map_thumb/Entrance_China%20HK%20city_large.jpg
17,18,Chinachem Tsuen Wan Plaza,22.3752117156982,114.111328125,Standard,New Territories,Tsuen Wan,"Chinachem Tsuen Wan Plaza, 1/F
457 Castle Peak Road, Tsuen Wan, NT",CLP,C2,/EV/PublishingImages/common/map/map_thumb/Chinachem%20Tsuen%20Wan%20Plaza.jpg
18,19,Hong Kong Science Park,22.4262580871582,114.20987701416,SemiQuick,New Territories,Shatin,"Hong Kong Science Park Carpark P2, B/F,
8-10 Science Park West Avenue, Shatin, N.T.",CLP,"D042 - D052, D106 - D112",/EV/PublishingImages/common/map/map_thumb/Entrance_HK%20Science%20Park_large.jpg
19,20,Tin Shing Court,22.4493846893311,114.001853942871,Standard,New Territories,Yuen Long,"Tin Shing Court Carpark, 3/F,
3 Tin Ching Street, Tin Shui Wai,Yuen Long, N.T.",CLP,"3177-3186, 3189-3206",/EV/PublishingImages/common/map/map_thumb/Tin%20Shing%20Court.jpg
20,21,Shatin Centre,22.382116317749,114.190078735352,SemiQuick,New Territories,Shatin,"Shatin Centre Carpark, 2/F, 
2-16 Wang Pok Street, Shatin, N.T.",CLP,73-75,/EV/PublishingImages/common/map/map_thumb/Shatin%20Centre.jpg
21,22,Mira Mall,22.3006286621094,114.172828674316,SemiQuick,Kowloon,Yau Tsim Mong,"Mira Mall Carpark, B2/F
132 Nathan Road, Tsim Sha Tsui, Kln",CLP,2116-2119,/EV/PublishingImages/common/map/map_thumb/Miramar%20Shopping%20Centre.jpg
22,23,Langham Place,22.3174228668213,114.168731689453,SemiQuick,Kowloon,Yau Tsim Mong,"Langham Place Carpark, B4/F, 
8 Argyle Street, Mongkok, Kln",CLP,"22, 41, 64",/EV/PublishingImages/common/map/map_thumb/Entrance_Langham%20Place.jpg
23,24,Citygate,22.2911186218262,113.943572998047,SemiQuick,Outlying Islands,Outlying Islands,"Citygate North Carpark, B1/F,
20 Tat Tung Road, Tung Chung, Lantau",CLP,"121, 122",/EV/PublishingImages/common/map/map_thumb/Entrance_Citygate.jpg
24,25,CLP Centenary Building,22.3077507019043,114.162055969238,Quick,Kowloon,Yau Tsim Mong,"CLP Centenary Building, G/F,
1 To Wah Road, Jordan, Kowloon",CLP,,/EV/PublishingImages/common/map/map_thumb/Entrance_CLP%20Centenary%20Building_large.jpg
25,26,Hong Kong Science Park,22.4263610839844,114.209915161133,Quick,New Territories,Shatin,"Hong Kong Science Park Carpark P2, B/F,
8-10 Science Park West Avenue, Shatin, N.T.",CLP,D104,/EV/PublishingImages/common/map/map_thumb/Entrance_HK%20Science%20Park_large.jpg
26,27,Hong Kong International Airport,22.3181991577148,113.933769226074,SemiQuick,Outlying Islands,Outlying Islands,"HK International Airport Carpark 4, 1/F,
11 Cheong Tat Road, Hong Kong International Airport,
Chek Lap Kok",CLP,"1004 -1005, 1085-1086",/EV/PublishingImages/common/map/map_thumb/Entrance_HK%20International%20Airport.jpg
27,28,The Peak Galleria,22.270471572876,114.149543762207,Standard,Hong Kong Island,Central and Western,"The Peak Galleria Carpark, B1/F 
118 Peak Road, The Peak, Hong Kong",Others,,/EV/PublishingImages/common/map/map_thumb/The%20Peak%20Galleria%20Carpark%2002.jpg
28,29,Star Ferry,22.2830810546875,114.160255432129,Standard;SemiQuick,Hong Kong Island,Central and Western,"Star Ferry Carpark 1/F,9 Edinburgh Place, Central, Hong Kong",Others,,/EV/PublishingImages/common/map/map_thumb/Star%20Ferry%20Carpark%2001.jpg
29,30,Cityplaza,22.2865810394287,114.218032836914,Standard,Hong Kong Island,Eastern,"Cityplaza, Carpark B3 
18 Taikoo Shing Road, Taikoo Shing, Hong Kong",Others,,/EV/PublishingImages/common/map/map_thumb/Cityplaza.jpg
30,31,Oi Tung Estate,22.2803726196289,114.226852416992,Standard,Hong Kong Island,Eastern,"Oi Tung Estate Carpark, 2/F, 
Oi Tung Estate, Shau Kei Wan, Hong Kong",Others,,/EV/PublishingImages/common/map/map_thumb/Oi%20Tung%20Estate.jpg
31,32,Tin Hau Carpark,22.2830295562744,114.191688537598,Standard,Hong Kong Island,Eastern,"Tin Hau Carpark, 3/F, 
Lau Sin Street &amp; Electric Road Junction, Tin Hau, Hong Kong",Others,,/EV/PublishingImages/common/map/map_thumb/Tin%20Hau%20Carpark.jpg
32,33,Cyberport,22.262451171875,114.130599975586,Standard,Hong Kong Island,Southern,"Cyberport Car Park 1, 2/F
Cyberport 2, 100 Cyberport Road, Hong Kong",Others,,/EV/PublishingImages/common/map/map_thumb/Cyberport%20car%20park%201_001.jpg
33,34,HEC ex-Operational Headquarters,22.2434043884277,114.147987365723,Quick,Hong Kong Island,Southern,"HEC ex-Operational Headquarters, G/F
2 Yi Nga Drive, Ap Lei Chau, Hong Kong",Others,,/EV/PublishingImages/common/map/map_thumb/HK%20Electric%20ex-Operational%20Headquarters.jpg
34,35,The Centrium,22.280725479126,114.154586791992,Standard,Hong Kong Island,Central and Western,"The Centrium Carpark 8/F 
60 Wyndham Street , Central HK",Others,,/EV/PublishingImages/common/map/map_thumb/The%20Centrium.jpg
35,36,Citibank Plaza,22.2788238525391,114.160987854004,Standard,Hong Kong Island,Central and Western,"Citibank Plaza Carpark B2 &amp; B3 
Citibank Plaza Lcbc Tower , 3 Garden Road, Central, HK",Others,,/EV/PublishingImages/common/map/map_thumb/Citibank%20Plaza.jpg
36,37,New World Tower,22.280366897583,114.156875610352,Standard,Hong Kong Island,Central and Western,"New World Tower Carpark 6/F
16-18 Queen&#39;s Rd Central, HK",Others,,/EV/PublishingImages/common/map/map_thumb/New%20World%20Tower.jpg
37,38,148 Electric Road,22.2864227294922,114.191902160645,Standard,Hong Kong Island,Eastern,"148 Electric Road Carpark 2/F
148 Electric Road , North Point, HK",Others,,/EV/PublishingImages/common/map/map_thumb/148%20Electric%20Road.jpg
38,39,Cornell Centre,22.2677135467529,114.243087768555,Standard,Hong Kong Island,Eastern,"Cornell Centre Carpark 1/F
50 Wing Tai Road ,Chai Wan, HK",Others,,/EV/PublishingImages/common/map/map_thumb/Cornell%20Centre.jpg
39,40,Island Resort,22.2654590606689,114.251121520996,Standard,Hong Kong Island,Eastern,"Island Resort Carpark 1/F , 
28 Siu Sai Wan Road, Chai Wan, HK",Others,,/EV/PublishingImages/common/map/map_thumb/Island%20Resort.jpg
40,41,Great Eagle Centre,22.2808494567871,114.175270080566,Standard,Hong Kong Island,Wan Chai,"Great Eagle Centre Carpark 4/F, 
23-25 Harbour Road, Wan Chai, HK",Others,,/EV/PublishingImages/common/map/map_thumb/Great%20Eagle%20Centre.jpg
41,42,Hopewell Centr,22.2742805480957,114.171257019043,Standard;SemiQuick,Hong Kong Island,Wan Chai,"Hopewell Centre Carpark 11/F, 
183 Queen&#39;s Rd E, Wan Chai, HK",Others,,/EV/PublishingImages/common/map/map_thumb/Hopewell%20Centre.jpg
42,43,Olympic House,22.2740020751953,114.18741607666,Standard,Hong Kong Island,Wan Chai,"Olympic House Carpark G/F
1 Stadium Path, Happy Valley, HK",Others,,/EV/PublishingImages/common/map/map_thumb/Olympic%20House.jpg
43,44,Sino Plaza,22.2816143035889,114.182594299316,Standard,Hong Kong Island,Wan Chai,"Sino Plaza Carpark B2/F
255-257 Gloucester Road, Causerway Bay, HK",Others,,/EV/PublishingImages/common/map/map_thumb/Sino%20Plaza.jpg
44,45,Times Square,22.2779121398926,114.181762695313,Standard,Hong Kong Island,Wan Chai,"Times Square Carpark B5 &amp;B6
1 Matheson St, Causeway Bay, HK",Others,,/EV/PublishingImages/common/map/map_thumb/Times%20Square.jpg
45,46,Wu Chung House,22.2743892669678,114.172737121582,Standard,Hong Kong Island,Wan Chai,"Wu Chung House Carpark 5/F
213 Queen&#39;s Rd E, Wan Chai, HK",Others,,/EV/PublishingImages/common/map/map_thumb/Wu%20Chung%20House.jpg
46,47,Sunshine Plaza,22.3116893768311,114.189300537109,Standard,Kowloon,Kowloon City,"Sunshine Plaza Carpark Level 2/F
17 Sung On Street , Hung Hom, Kln",Others,,/EV/PublishingImages/common/map/map_thumb/Sunshine%20Plaza.jpg
47,48,Exchange Tower,22.3208255767822,114.209732055664,Standard,Kowloon,Kwun Tong,"Exchange Tower Carpark Level B2
33 Wang Chiu Road , Kowloon Bay, Kln",Others,,/EV/PublishingImages/common/map/map_thumb/Exchange%20Tower.jpg
48,49,Fullerton Centre,22.313419342041,114.219383239746,Standard,Kowloon,Kwun Tong,"Fullerton Centre Carpark G/F,
19 Hung To Road, Kwun Tong, Kln",Others,,/EV/PublishingImages/common/map/map_thumb/Fullerton%20Centre.jpg
49,50,Futura Plaza,22.3117294311523,114.224311828613,Standard,Kowloon,Kwun Tong,"Futura Plaza Carpark Level 1,
111-113 How Ming Street, Kwun Tong, Kln",Others,,/EV/PublishingImages/common/map/map_thumb/Futura%20Plaza.jpg
50,51,Kowloon Bay International Trade &amp; Exhibition Centre,22.3230495452881,114.204521179199,Standard,Kowloon,Kwun Tong,"Kowloon Bay International Trade &amp; Exhibition Centre, 
Carpark Level B2, 1 Trademart Drive, Kowloon Bay, Kln",Others,,/EV/PublishingImages/common/map/map_thumb/Hong%20Kong%20International%20Trade%20and%20Exhibition%20Centre.jpg
51,52,Kwun Tong Harbour Plaza,22.3091583251953,114.221244812012,Standard,Kowloon,Kwun Tong,"Kwun Tong Harbour Plaza Carpark Level 6,
182 Wai Yip Street, Kwun Tong, Kln",Others,,/EV/PublishingImages/common/map/map_thumb/Kwun%20Tong%20Harbour%20Plaza.jpg
52,53,Metro Centre,22.32448387146,114.210235595703,Standard,Kowloon,Kwun Tong,"Metro Centre Carpark G/F, 
32 Lam Hing Street, Kowloon Bay Kln",Others,,/EV/PublishingImages/common/map/map_thumb/Metro%20Centre.jpg
53,54,Metro Centre II,22.3246746063232,114.210952758789,Standard,Kowloon,Kwun Tong,"Metro Centre II Carpark G/F, 
21 Lam Hing Street, Kowloon Bay, Kln",Others,,/EV/PublishingImages/common/map/map_thumb/Metro%20Centre%20II.jpg
54,55,Remington Centre,22.3130493164063,114.219802856445,Standard,Kowloon,Kwun Tong,"Remington Centre G/F Carpark, 
23 Hung To Road, Kwun Tong, Kln",Others,,/EV/PublishingImages/common/map/map_thumb/Regentville%20Shopping%20Mall.jpg
55,56,Skyline Tower,22.3260250091553,114.205360412598,Standard,Kowloon,Kwun Tong,"Skyline Tower Carpark Level 2, 
39 Wang Kwong Road, Kowloon Bay, Kln",Others,,/EV/PublishingImages/common/map/map_thumb/Skyline%20Tower.jpg
56,57,Westin Centre,22.3130893707275,114.219520568848,Standard,Kowloon,Kwun Tong,"Westin Centre Carpark 1/F, 
26 Hung To Road, Kwun Tong, Kln",Others,,/EV/PublishingImages/common/map/map_thumb/Westin%20Centre.jpg
57,58,Hollywood Plaza,22.3406944274902,114.203102111816,Standard,Kowloon,Wong Tai Sin,"Hollywood Plaza Carpark B1, 
3 Lung Poon Street, Diamond Hill, Kln",Others,,/EV/PublishingImages/common/map/map_thumb/Hollywood%20Plaza.jpg
58,59,Empire Centre,22.2986316680908,114.178428649902,Standard,Kowloon,Yau Tsim Mong,"Empire Centre Carpark B/F, 
68 Mody Road, Tsim Sha Tsui, Kln",Others,,/EV/PublishingImages/common/map/map_thumb/Empire%20Centre.jpg
59,60,K11 Art Mall,22.2971534729004,114.173316955566,Standard,Kowloon,Yau Tsim Mong,"K11 Art Mall Carpark B4, 
18 Hanoi Road, Tsim Sha Tsui, Kln",Others,,/EV/PublishingImages/common/map/map_thumb/K11%20Art%20Mall.jpg
60,61,Olympian City I,22.3200588226318,114.157608032227,Standard,Kowloon,Yau Tsim Mong,"Olympian City I Carpark UG, 
11 Hoi Fai Road, West Kowloon, Kln",Others,,/EV/PublishingImages/common/map/map_thumb/Olympian%20City%20I.jpg
61,62,Avon Park,22.4874782562256,114.142448425293,Standard,New Territories,North,"Avon Park, Carpark B1/F, 
15 Yat Ming Road, Fanling, N.T.",Others,,/EV/PublishingImages/common/map/map_thumb/Avon%20Park.jpg
62,63,Cambridge Plaza,22.5064926147461,114.122360229492,Standard,New Territories,North,"Cambridge Plaza Carpark G/F, 
188 San Wan Road, Sheung Shui, NT",Others,,/EV/PublishingImages/common/map/map_thumb/Cambridge%20Plaza.jpg
63,64,Grand Regentville,22.5003337860107,114.144653320313,Standard,New Territories,North,"Grand Regentville Carpark B2, 
9 Wo Mun Street, Fanling, N.T.",Others,,/EV/PublishingImages/common/map/map_thumb/Grand%20Regentville.jpg
64,65,Regentville Shopping Mall,22.5012283325195,114.143859863281,Standard,New Territories,North,"Regentville Shopping Mall Carpark B1/F,  
8 Wo Mun Street, Fanling, NT",Others,,/EV/PublishingImages/common/map/map_thumb/Regentville%20Shopping%20Mall.jpg
65,66,Corporation Park,22.3893356323242,114.207504272461,Standard,New Territories,Shatin,"Corporation Park Carpark G/F, 
11 On Lai Street, Shatin, NT",Others,,/EV/PublishingImages/common/map/map_thumb/Corporation%20Park.jpg
66,67,Shatin Galleria,22.3972835540771,114.193092346191,Standard,New Territories,Shatin,"Shatin Galleria Carpark 4/F, 
18-24 Shan Mei Street, Fo Tan, NT",Others,,/EV/PublishingImages/common/map/map_thumb/Shatin%20Galleria.jpg
67,68,Discovery Park Shopping Mall,22.3760948181152,114.112968444824,Standard,New Territories,Tsuen Wan,"Discovery Park Shopping Mall Carpark Level 4, 
398 Castle Park Road, Tsuen Wan, NT",Others,,/EV/PublishingImages/common/map/map_thumb/Discovery%20Park%20Shopping%20Mall.jpg
68,69,Panda Place,22.3691139221191,114.120895385742,Standard,New Territories,Tsuen Wan,"Panda Place Carpark 4/F, 
3 Tuen Wah Street, Tsuen Wan, NT",Others,,/EV/PublishingImages/common/map/map_thumb/Panda%20Place.jpg
69,70,Riviera Plaza,22.3629608154297,114.114402770996,Standard,New Territories,Tsuen Wan,"Riviera Plaza Carpark B1, 
28 Wing Shun Street,Tsuen Wan, NT",Others,,/EV/PublishingImages/common/map/map_thumb/Riviera%20Plaza.jpg
70,71,Waterside Plaza,22.3633041381836,114.114570617676,Standard,New Territories,Tsuen Wan,"Waterside Plaza Carpark 1/F, 
38 Wing Shun Street,Tsuen Wan, NT",Others,,/EV/PublishingImages/common/map/map_thumb/Waterside%20Plaza.jpg
71,72,Oceania Heights,22.383939743042,113.971618652344,Standard,New Territories,Tuen Mun,"Oceania Heights Carpark Level 1, 
2 Hoi Chu Rd. ,Tuen Mun, NT",Others,,/EV/PublishingImages/common/map/map_thumb/Oceania%20Heights.jpg
72,73,Parklane Centre,22.3961296081543,113.969444274902,Standard,New Territories,Tuen Mun,"Parklane Centre Carpark G/F, 
25 Kin Wing St., Tuen Mun, NT",Others,,/EV/PublishingImages/common/map/map_thumb/Parklane%20Centre.jpg
73,74,Tuen Mun Town Plaza II,22.3938217163086,113.976432800293,Standard,New Territories,Tuen Mun,"Tuen Mun Town Plaza II Carpark G/F, 
3 Tuen Lung St., Tuen Mun, NT",Others,,/EV/PublishingImages/common/map/map_thumb/Tuen%20Mun%20Town%20Plaza%20II.jpg
74,75,Tuen Mun Town Plaza III,22.3943252563477,113.977485656738,Standard,New Territories,Tuen Mun,"Tuen Mun Town Plaza III Carpark B2/F, 
2 Tuen Yan St., Tuen Mun, NT",Others,,/EV/PublishingImages/common/map/map_thumb/Tuen%20Mun%20Town%20Plaza%20III.jpg
75,76,Golden Plaza,22.4452037811279,114.031227111816,Standard,New Territories,Yuen Long,"Golden Plaza Carpark 3/F, 
28 Shui Che Kwun St., Yuen Long, NT",Others,,/EV/PublishingImages/common/map/map_thumb/Golden%20Plaza.jpg
76,77,Ping Wui Centre,22.4468116760254,114.022026062012,Standard,New Territories,Yuen Long,"Ping Wui Centre Carpark 1/F, 
13 Ping Wui St., Yuen Long, NT",Others,,/EV/PublishingImages/common/map/map_thumb/Ping%20Wui%20Centre.jpg
77,78,Springdale Villas,22.4404621124268,114.021453857422,Standard,New Territories,Yuen Long,"Springdale Villas Carpark 2/F, 
80 Ma Tin Road, Yuen Long, NT",Others,,/EV/PublishingImages/common/map/map_thumb/Springdale%20Villas.jpg
78,79,Choi Yuen Plaza,22.5014114379883,114.127182006836,Quick,New Territories,North,"Choi Yuen Plaza Carpark 3, G/F, 
Choi Yuen Estate,Sheung Shui ,N.T.",CLP,6,/EV/PublishingImages/common/map/map_thumb/Entrance_Choi%20Yuen%20Plaza.jpg
79,80,Trend Centre,22.2659244537354,114.235366821289,Standard,Hong Kong Island,Eastern,"Trend Centre Carpark 1/F,
29-31 Cheung Lee St, Chai Wan, Hong Kong",Others,,/EV/PublishingImages/common/map/Trend%20Centre.jpg
80,81,Amoy Plaza,22.3251075744629,114.21630859375,Standard,Kowloon,Kwun Tong,"Amoy Plaza Carpark 1/F,
77 Ngau Tau Kok Road, Kowloon Bay, Kowloon",Others,,/EV/PublishingImages/common/map/Amoy%20Plaza.jpg
81,82,Excel Centre,22.3389415740967,114.150192260742,Standard,Kowloon,Sham Shui Po,"Excel Centre Carpark G/F,
483A Castle Peak Road, Cheung Sha Wan, Kowloon",Others,,/EV/PublishingImages/common/map/Excel%20Centre.jpg
82,83,Choi Yuen Plaza,22.5002918243408,114.126441955566,SemiQuick,New Territories,North,"Choi Yuen Plaza Carpark 3, G/F, 
Choi Yuen Estate, Sheung Shui ,N.T.",CLP,7-10,/EV/PublishingImages/common/map/map_thumb/Entrance_Choi%20Yuen%20Plaza.jpg
83,84,Cheung Fat Plaza,22.3626480102539,114.102630615234,SemiQuick,New Territories,Kwai Tsing,"Cheung Fat Plaza Carpark 2/F,
Cheung Fat Estate, Tsing Yi, N.T.",CLP,2094 - 2096,/EV/PublishingImages/common/map/map_thumb/Entrance_Cheung%20Fat%20Plaza.jpg
84,85,Yau Lai Shopping Centre,22.2985076904297,114.237464904785,SemiQuick,Kowloon,Kwun Tong,"Yau Lai Shopping Centre Carpark LG1/F,
9 Yau Tong Road, Yau Tong, Kowloon",CLP,"27-30, 34-35",/EV/PublishingImages/common/map/map_thumb/Entrance_Yau%20Lai%20Shopping%20Centre.jpg
85,86,Yau Lai Shopping Centre,22.2985076904297,114.237464904785,Quick,Kowloon,Kwun Tong,"Yau Lai Shopping Centre Carpark LG1/F,
9 Yau Tong Road, Yau Tong, Kowloon",CLP,"31, 33",/EV/PublishingImages/common/map/map_thumb/Entrance_Yau%20Lai%20Shopping%20Centre.jpg
86,87,Choi Tak Shopping Centre,22.3314208984375,114.213768005371,SemiQuick,Kowloon,Kwun Tong,"Choi Tak Shopping Centre Carpark 2/F, 
Ngau Tau Kok, Kowloon",CLP,258-262,/EV/PublishingImages/common/map/map_thumb/Entrance_Choi%20Tak%20Shopping%20Centre.jpg
87,88,Shui Pin Wai Estate,22.4468097686768,114.022079467773,Quick,New Territories,Yuen Long,"Shui Pin Wai Estate Carpark G/F, 
Yuen Long, N.T.",CLP,7,/EV/PublishingImages/common/map/map_thumb/Entrance_Shui%20Pin%20Wai%20Estate.jpg
88,89,Stanley Plaza,22.2200450897217,114.210319519043,Quick,Hong Kong Island,Southern,"Stanley Plaza Carpark 4/F,
23 Carmel Road, Stanley, Hong Kong",Others,,/EV/PublishingImages/common/map/map_dummy_gov.jpg
89,90,Star Ferry,22.2822742462158,114.160430908203,Quick,Hong Kong Island,Central and Western,"Star Ferry Carpark 4/F,
9 Edinburgh Place, Central, Hong Kong",Others,,/EV/PublishingImages/common/map/map_thumb/Star%20Ferry%20Carpark%2001.jpg
90,91,Hong Kong International Airport,22.3182468414307,113.933815002441,Quick,Outlying Islands,Outlying Islands,"HK International Airport Carpark 4, 1/F,
11 Cheong Tat Road, Hong Kong International Airport-station, Chek Lap Kok",CLP,"1002, 1087-1089",/EV/PublishingImages/common/map/map_thumb/Entrance_HK%20International%20Airport.jpg
91,92,Kwai Chung Shopping Centre,22.367431640625,114.127708435059,SemiQuick,New Territories,Kwai Tsing,"Kwai Chung Shopping Centre Carpark L2,
Kwai Chung Estate, Kwai Chung, NT",CLP,"P115-P120, P168",/EV/PublishingImages/common/map/map_thumb/Entrance_Kwai%20Chung%20Estate.jpg
92,93,Tsuen Wan Multi-storey Car Park,22.373010635376,114.118721008301,Standard;SemiQuick,New Territories,Tsuen Wan,"Tsuen Wan Multi-storey Car Park, 
174-208 Castle Peak Road, Tsuen Wan",Others,,
93,94,Lions Rise Mall,22.3398857116699,114.196968078613,Standard;SemiQuick,Kowloon,Wong Tai Sin,"8 Muk Lun Street, Wong Tai Sin",Others,,
94,95,Sheung Fung Street Market,22.3441123962402,114.196937561035,Standard;SemiQuick,Kowloon,Wong Tai Sin,"Sheung Fung Street Market, Sheung Fung Street, Wong Tai Sin",Others,,
95,96,AIA Financial Centre,22.335033416748,114.199325561523,Standard,Kowloon,Wong Tai Sin,"712 Prince Edward Road East, Sun Po Kong",Others,,
96,97,Queensway Government Offices,22.2772960662842,114.163833618164,Standard;SemiQuick,Hong Kong Island,Central and Western,"Queensway Government Offices, 66 Queensway, Hong Kong",Others,,
97,98,Murray Road Multi-storey Car Park,22.2803325653076,114.162727355957,Standard;SemiQuick,Hong Kong Island,Central and Western,"Murray Road Multi-storey Car Park, 2 Murray Road, Central",Others,,
98,99,Two International Finance Centre,22.2860260009766,114.158569335938,SemiQuick,Hong Kong Island,Central and Western,"Car Park B5, Two International Finance Centre, 8 Finance Street, Central",Others,,
99,100,Rumsey Street Multi-storey Car Park,22.2875308990479,114.152137756348,Standard;SemiQuick,Hong Kong Island,Central and Western,"Rumsey Street Multi-storey Car Park, 2 Rumsey Street, Sheung Wan",Others,,
100,101,City Hall Multi-storey Car Park,22.2817783355713,114.161598205566,Standard;SemiQuick,Hong Kong Island,Central and Western,"City Hall Multi-storey Car Park, 1 Edinburgh Place, Central",Others,,
101,102,Tin Hau Carpark,22.2830295562744,114.191688537598,SemiQuick,Hong Kong Island,Eastern,"Tin Hau Carpark, 3/F,
Lau Sin Street &amp; Electric Road Junction, Tin Hau, Hong Kong",Others,,
102,103,North District Government Offices,22.4953308105469,114.138282775879,Standard;SemiQuick,New Territories,North,"North District Government Offices, 3 Pik Fung Road,
Fanling, N.T.",Others,,
103,104,Sai Kung Government Offices,22.3817367553711,114.271789550781,Standard;SemiQuick,New Territories,Sai Kung,"Sai Kung Government Offices, 34 Chan Man Street, Sai Kung, New Territories",Others,,
104,105,Maritime Square,22.3584804534912,114.105545043945,Standard,New Territories,Kwai Tsing,"Maritime Square, 33 Tsing King Road, Tsing Yi",Others,,
105,106,East Point City,22.315637588501,114.265960693359,SemiQuick,New Territories,Sai Kung,"East Point City, 8 Chung Wa Road, Tseung Kwan O",Others,,
106,107,Wan Chai Tower and Immigration Tower,22.2804927825928,114.17276763916,Standard;SemiQuick,Hong Kong Island,Wan Chai,"12 Harbour Road, Wan Chai",Others,,
107,108,Laws Commercial Plaza,22.3380947113037,114.149971008301,SemiQuick,Kowloon,Sham Shui Po,"788 Cheung Sha Wan Road, Cheung Sha Wan",Others,,
108,109,Mikiki,22.3341083526611,114.19702911377,Standard,Kowloon,Wong Tai Sin,"638 Prince Edward Road Esat, San Po Kong",Others,,
109,110,"Telford Plaza Phase 1D, 33 Wai Yip Street, Kowloon Bay",22.3221912384033,114.213203430176,Standard,Kowloon,Kwun Tong,"Telford Plaza Phase 1D, 33 Wai Yip Street, Kowloon Bay",Others,,
110,111,"Yue Wan Estate Carpark, Eastern District, Hong Kong",22.2648334503174,114.240249633789,Quick,Hong Kong Island,Eastern,"1/F, Yue Wan Estate Carpark, Yee Fung Street, Chai Wan, Hong Kong",Others,84,
111,112,Tak Long Estate,22.3287239074707,114.204620361328,Quick,Kowloon,Kowloon City,"Tak Long Estate Carpark 1/F, Kai Tak Development Area",CLP,"40, 41",/EV/PublishingImages/tak%20long.JPG
112,113,Kerry Centre,22.2904682159424,114.210182189941,Standard,Hong Kong Island,Eastern,"28 Hoi Chak Street, Quarry Bay",Others,,
113,114,Oxford House,22.2873115539551,114.213020324707,Standard,Hong Kong Island,Eastern,"22 Westlands Road, Quarry Bay",Others,,
114,115,Dorset House,22.287410736084,114.212249755859,Standard,Hong Kong Island,Eastern,"41 Tong Chong Street, Quarry Bay",Others,,
115,116,One Island East,22.2862701416016,114.21305847168,Standard,Hong Kong Island,Eastern,"18 Westlands Road, Quarry Bay",Others,,
116,117,Kai Tak Cruise Terminal,22.3074970245361,114.211959838867,Standard,Kowloon,Kowloon City,"33 Shing Fung Road, Kai Tak",Others,,
117,118,Hung Hom Station Car Park,22.3025379180908,114.181098937988,Standard,Kowloon,Kowloon City,"On Wan Road, Hung Hom",Others,,
118,119,Kai Ching Estate,22.3321514129639,114.203804016113,Standard,Kowloon,Kowloon City,"Muk Hung Street, Kowloon City",Others,,
119,120,One International Finance Centre,22.284574508667,114.157752990723,SemiQuick,Hong Kong Island,Central and Western,1 Harbour View Street,Others,,
120,121,Hanford Plaza,22.3817367553711,113.976921081543,Standard,New Territories,Tuen Mun,"6 Sam Shing Street, Tuen Mum",Others,,
121,122,Sun Tuen Mun Shopping Centre,22.3808631896973,113.964363098145,Standard,New Territories,Tuen Mun,"Tuen Tsing Lane, Lung Mun Road, Tuen Mun",Others,,
122,123,Kornhill Plaza (south),22.2841281890869,114.217002868652,Standard,Hong Kong Island,Eastern,"18 Hong On Street, Quarry Bay",Others,,
123,124,North Point Government Offices,22.2919883728027,114.208099365234,Standard;SemiQuick,Hong Kong Island,Eastern,"333 Java Road, North Point",Others,,
124,125,Shau Kei Wan Multi-storey Car Park,22.2789058685303,114.229499816895,Standard;SemiQuick,Hong Kong Island,Eastern,"16 Mong Lung Street, Shau Kei Wan",Others,,
125,126,Cheung Sha Wan Government Offices,22.3320446014404,114.160491943359,Standard;SemiQuick,Kowloon,Sham Shui Po,303 Cheung Sha Wan Road,Others,,
126,127,Yau Ma Tei Car Park,22.3092842102051,114.170700073242,Standard;SemiQuick,Kowloon,Yau Tsim Mong,"58 Temple Street, Yau Ma Tei",Others,,
127,128,Sha Tin Government Offices,22.3859195709229,114.18724822998,Standard;SemiQuick,New Territories,Shatin,"1 Sheung Wo Che Road, Shatin",Others,,
128,129,Whampoa Plaza,22.3045139312744,114.190353393555,Standard,Kowloon,Kowloon City,"7 Tak On Street, Hung Hom",Others,,
129,130,Ka Wai Chuen,22.3075923919678,114.186309814453,Standard,Kowloon,Kowloon City,"10 Station Lane, Ma Tau Wai Road, Hung Hom",Others,,
130,131,Remington Centre,22.3131122589111,114.219635009766,Standard,Kowloon,Kwun Tong,"23 Hung To Road, Kwun Tong",Others,,
131,132,Shui On Centre,22.2804565429688,114.171325683594,SemiQuick,Hong Kong Island,Wan Chai,"8 Harbour Road, Wan Chai",Others,,
132,133,AIA Tower,22.2881488800049,114.192230224609,Standard,Hong Kong Island,Eastern,"28 Wang On Road, Causeway Bay",Others,,
133,134,Paradise Mall (West),22.2780895233154,114.239112854004,Standard,Hong Kong Island,Eastern,"100 Sing Tai Road, Chai Wan",Others,,
134,135,Lai Tak Tsuen,22.2783584594727,114.194046020508,Standard,Hong Kong Island,Eastern,"16 Lai Tak Tsuen Road, Tai Hang",Others,,
135,136,Mei Tin Estate,22.3762607574463,114.171104431152,Standard,New Territories,Shatin,"Heung Fan Liu Street, Tai Wai",Others,,
136,137,Ma On Shan Centre,22.4263782501221,114.233116149902,Standard,New Territories,Shatin,"1 On Chun Street, Ma On Shan",Others,,
137,138,New Town Plaza III,22.3800792694092,114.18709564209,Standard,New Territories,Shatin,"9 Shatin Centre Street, Shatin",Others,,
138,139,New Town Plaza I,22.382194519043,114.188804626465,Standard,New Territories,Shatin,"18 Shatin Centre Street, Shatin",Others,,
139,140,Plaza Ascot,22.4001502990723,114.200958251953,Standard,New Territories,Shatin,"11 Lok King Street, Fo Tan",Others,,
140,141,Shatin Plaza,22.3837928771973,114.189521789551,Standard,New Territories,Shatin,"21 Shatin Centre Street, Shatin",Others,,
141,142,The Tolo Place,22.4255027770996,114.229858398438,Standard,New Territories,Shatin,"1 On Chun Street, Ma On Shan",Others,,
142,143,Sunshine City Phase IV,22.4235343933105,114.231117248535,Standard,New Territories,Shatin,"18 On Luk Street, Ma On Shan",Others,,
143,144,Sunshine City Phase III,22.4228897094727,114.231727600098,Standard,New Territories,Shatin,"8 On Shing Street, Ma On Shan",Others,,
144,145,Shatin Galleria,22.3968505859375,114.193458557129,Standard,New Territories,Shatin,"13 Shan Mei Street, Fo Tan",Others,,
145,146,Sheung Shui Centre,22.5005378723145,114.130462646484,Standard,New Territories,North,"3 Chi Cheong Road, Sheung Shui",Others,,
146,147,Tseung Kwan O Plaza,22.3094387054443,114.26163482666,Standard,New Territories,Sai Kung,"1 Tong Tak Street, Tseung Kwan O",Others,,
147,148,PopCorn 2,22.3094062805176,114.261558532715,Standard,New Territories,Sai Kung,"1 Tong Tak Street, Tseung Kwan O",Others,,
148,149,PopCorn 1,22.3083724975586,114.258735656738,Standard,New Territories,Sai Kung,"9 Tong Tak Street, Tseung Kwan O",Others,,
149,150,Maritime Bay,22.3142108917236,114.265312194824,Standard,New Territories,Sai Kung,"2 Man Kuk Lane, Pui Shing Road, Tseung Kwan O",Others,,
150,151,Luk Yeung Sun Chuen,22.37229347229,114.121849060059,Standard,New Territories,Tsuen Wan,"22 Wai Tsuen Road, Tsuen Wan",Others,,
151,152,International Trade Centre,22.3743495941162,114.108009338379,Standard,New Territories,Tsuen Wan,"15 Sha Tsui Road, Tsuen Wan",Others,,
152,153,Town Square,22.3716239929199,114.11840057373,Standard,New Territories,Tsuen Wan,"51 Shiu Wo Street, Tsuen Wan",Others,,
153,154,City Landmark,22.3705806732178,114.117881774902,Standard,New Territories,Tsuen Wan,"18 Tak Hoi Street, Tsuen Wan",Others,,
154,155,Kowloon Shangri-la Hotel,22.2974681854248,114.176887512207,Standard,Kowloon,Yau Tsim Mong,"64 Mody Road, Tsim Sha Tsui",Others,,
155,156,Wealth Commerical Centre,22.3167915344238,114.17350769043,Standard,Kowloon,Yau Tsim Mong,"48 Kwong Wa Street, Mong Kok",Others,,
156,157,Park-In Commercial Centre,22.3154621124268,114.171272277832,Standard,Kowloon,Yau Tsim Mong,"56 Dundas Street, Yau Ma Tei",Others,,
157,158,Elements (South),22.3040962219238,114.159973144531,Standard,Kowloon,Yau Tsim Mong,"Nga Cheung Road, Tsim Sha Tsui",Others,,
158,159,Elements (North),22.306697845459,114.161155700684,Standard,Kowloon,Yau Tsim Mong,"Nga Cheung Road, Tsim Sha Tsui",Others,,
159,160,Hong Kong Scout Centre,22.3024673461914,114.169158935547,Standard,Kowloon,Yau Tsim Mong,"10 Scout Path, Austin Road, Tsim Sha Tsui",Others,,
160,161,Aqua Marine (JUSCO Car Park),22.3331871032715,114.148574829102,Standard,Kowloon,Sham Shui Po,"8 Sham Shing Road, Lai Chi Kok",Others,,
161,162,Manhattan Hill,22.3343048095703,114.142524719238,Standard,Kowloon,Sham Shui Po,"1 Po Lun Street, Lai Chi Kok",Others,,
162,163,Kowloon Plaza,22.3383007049561,114.14917755127,Standard,Kowloon,Sham Shui Po,"1008 Tai Nan West Street, Cheung Sha Wan",Others,,
163,164,Dragon Centre,22.3399715423584,114.149429321289,Standard,Kowloon,Sham Shui Po,"104-110 King Lam Street, Cheung Sha Wan",Others,,
164,165,CEO Tower,22.3393592834473,114.149322509766,Standard,Kowloon,Sham Shui Po,"77-79 Wing Hong Street, Cheung Sha Wan",Others,,
165,166,Garden Estate  (Lotus Tower),22.317663192749,114.217323303223,Standard,Kowloon,Kwun Tong,"On Shin Road, Ngau Tau Kok, Kwun Tong",Others,,
166,167,Lower Ngau Tau Kok Estate,22.3207054138184,114.215644836426,Standard,Kowloon,Kwun Tong,"183 Ngau Tau Kok Road, Kwun Tong",Others,,
167,168,Domain,22.2969417572021,114.23950958252,Standard,Kowloon,Kwun Tong,"80 Lei Yue Mun Road, Yau Tong",Others,,
168,169,Octa Tower,22.3155784606934,114.212265014648,Standard,Kowloon,Kwun Tong,"3 Kai Hing Road, Kowloon Bay",Others,,
169,170,Everest Industrial Centre,22.3128681182861,114.222183227539,Standard,Kowloon,Kwun Tong,"85 How Ming Street, Kwun Tong",Others,,
170,171,Camelpaint Building,22.310697555542,114.225021362305,Standard,Kowloon,Kwun Tong,"62 Hoi Yuen Road, Kwun Tong",Others,,
171,172,Proficient Industrial Centre,22.3226890563965,114.20824432373,Standard,Kowloon,Kwun Tong,"6 Wang Kwun Road, Kowloon Bay",Others,,
172,173,Pacific Trade Centre,22.3158416748047,114.212532043457,Standard,Kowloon,Kwun Tong,"1 Kai Hing Road, Kowloon Bay",Others,,
173,174,Telford Plaza II,22.3210048675537,114.21297454834,Standard,Kowloon,Kwun Tong,"33 Wai Yip Street, Kwun Tong",Others,,
174,175,Convention Plaza (Expo Drive Central Road) Carpark,22.2825965881348,114.173751831055,Standard,Hong Kong Island,Wan Chai,"Expo Drive Central, Wan Chai",Others,,
175,176,Convention Plaza (Harbour Road) Carpark,22.2806835174561,114.17529296875,Standard,Hong Kong Island,Wan Chai,"25 Harbour Road, Wan Chai",Others,,
176,177,Telford Plaza Phase 1,22.3221912384033,114.213203430176,Standard,Kowloon,Kwun Tong,"Telford Plaza Phase 1D, 33 Wai Yip Street, Kowloon Bay",Others,,
177,178,Sheung Tak Plaza,22.3104114532471,114.258033752441,Quick,New Territories,Sai Kung,"Carpark B, Sheung Tak Plaza  2 Tong Ming Street, 

Tseung Kwan O, New Territories",CLP,B010 &amp; B011,/EV/PublishingImages/sheung%20tak.JPG
178,179,Nina Tower,22.3688278198242,114.113906860352,Quick,New Territories,Tsuen Wan,"Nina Tower Carpark, UB/F, 8 Yueng Uk Road, Tsuen Wan",CLP,05-06,/EV/PublishingImages/common/map/Entrance_Nina%20Tower.jpg
179,180,Tuen Mun Town Plaza I,22.3935165405273,113.976783752441,Quick,New Territories,Tuen Mun,"Tuen Mun Town Plaza Carpark, 4/F 

Tuen Mun Town Plaza Ph1, 1 Tuen Shun St, Tuen Mun, NT",CLP,4153-4154,/EV/PublishingImages/EVQC%20-%20Tuen%20Mun.JPG
180,181,Uptown Plaza,22.4442234039307,114.168502807617,Quick,New Territories,Tai Po,"Uptown Plaza Carpark, 2/F, Uptown Plaza, Tai Po",CLP,R101,/EV/PublishingImages/EVQC%20-%20Uptown%20Plaza.JPG
181,182,Tin Shing Court,22.44948387146,114.001953125,SemiQuick,New Territories,Yuen Long,"Tin Shing Court Carpark, 3/F, 3 Tin Ching Street, Tin Shui Wai,Yuen Long, N.T.",CLP,3183-3186,/EV/PublishingImages/common/map/map_thumb/Tin%20Shing%20Court.jpg
182,183,Pioneer Centre,22.3226432800293,114.169326782227,SemiQuick,Kowloon,Yau Tsim Mong,"Pioneer Centre Car Park, 750 Nathan Road, Mong Kok, Kowloon",Others,,/EV/PublishingImages/Station%20Photos/Pioneer%20Centre.PNG
183,184,Asia Orient Tower,22.2787990570068,114.169677734375,SemiQuick,Hong Kong Island,Wan Chai,"52 Jaffe Rd, Wan Chai",Others,Tesla only,
184,185,Cathay Pacific City,22.298282623291,113.933906555176,SemiQuick,Outlying Islands,Outlying Islands,"8 Scenic Rd, Chek Lap Kok",Others,,
185,186,Choi Hung Park-and-Ride Public Car Park,22.3342418670654,114.210273742676,SemiQuick,Kowloon,Wong Tai Sin,"2/F-8/F, No.8 Clear Water Bay Road",Others,,
186,187,Chung On Shopping Centre,22.4220676422119,114.227081298828,Quick,New Territories,Shatin,"Sai Sha Rd, Ma On Shan",Others,BYD only,
187,188,Coronation Circle,22.3095855712891,114.16633605957,Standard,Kowloon,Yau Tsim Mong,"1 Yau Cheung Rd, Yau Ma Tei",Others,,
188,189,Electrical and Mechanical Services Department Headquarters,22.3258056640625,114.204681396484,SemiQuick,Kowloon,Kwun Tong,"3 Kai Shing Street, Kowloon Bay",Others,For permitted visitor only.,
189,190,Fu Shin Shopping Centre,22.4543685913086,114.174835205078,Quick,New Territories,Tai Po,"12 On Po Rd, Tai Po",Others,BYD only,
190,191,Fu Tai Shopping Centre,22.4127731323242,113.983123779297,Quick,New Territories,Tuen Mun,"9 Tuen Kwai Rd, Fu Tei, Tuen Mun",Others,BYD only,
191,192,Grand Central Plaza,22.3859786987305,114.187423706055,Standard,New Territories,Shatin,"138 Shatin Rural Committee Road &amp; Pai Tau St, Sha Tin",Others,,
192,193,Hing Wah Plaza,22.2628288269043,114.236206054688,Quick,Hong Kong Island,Eastern,"11 Wan Tsui Rd, Chai Wan",Others,BYD only,
193,194,Hong Kong SkyCity Marriott Hotel,22.3192901611328,113.943565368652,SemiQuick,Outlying Islands,Outlying Islands,"1 Sky City Rd E, Chek Lap Kok",Others,Tesla only,
194,195,Hong Kong Wetland Park,22.4681568145752,114.003433227539,SemiQuick,New Territories,Yuen Long,"Wetland Park Rd, Tin Shui Wai",Others,,
195,196,Hotel Icon,22.3008308410645,114.178642272949,SemiQuick,Kowloon,Yau Tsim Mong,"17 Science Museum Road, Tsim Sha Tsui",Others,Tesla only,
196,197,Hotel Panorama by Rhombus,22.2976894378662,114.174591064453,SemiQuick,Kowloon,Yau Tsim Mong,"8A Hart Ave, Tsim Sha Tsui",Others,Tesla only,
197,198,InterContinental Grand Stanford Hong Kong,22.2990283966064,114.178215026855,SemiQuick,Kowloon,Yau Tsim Mong,"70 Mody Rd, Tsim Sha Tsui",Others,Tesla only,
198,199,International Commerce Centre,22.3038120269775,114.160415649414,SemiQuick,Kowloon,Yau Tsim Mong,"1 Austin Rd W, West Kowloon",Others,,
199,200,Le Meridien Cyberport,22.2617301940918,114.129173278809,SemiQuick,Hong Kong Island,Southern,"100 Cyberport Rd, Hong Kong",Others,Tesla only,
200,201,Lee Garden 1,22.2782039642334,114.184913635254,SemiQuick,Hong Kong Island,Wan Chai,"33 Hysan Ave, Causeway Bay",Others,,
201,202,Lee Garden 2,22.2782363891602,114.186065673828,SemiQuick,Hong Kong Island,Wan Chai,"2-38 Yun Ping Rd, Causeway Bay",Others,,
202,203,Lee Garden 2,22.2782363891602,114.186065673828,Quick,Hong Kong Island,Wan Chai,"2-38 Yun Ping Rd, Causeway Bay",Others,Tesla only,
203,204,Leighton Centre,22.2780246734619,114.183151245117,SemiQuick,Hong Kong Island,Wan Chai,"77 Leighton Rd, Causeway Bay",Others,,
204,205,L&#39;hotel elan,22.3140125274658,114.219230651855,SemiQuick,Kowloon,Kwun Tong,"38 Chong Yip Street, Ngau Tau Kok",Others,Tesla only,
205,206,L&#39;hotel Island South,22.2500247955322,114.168029785156,SemiQuick,Hong Kong Island,Southern,"55 Wong Chuk Hang Rd, Aberdeen",Others,Tesla only,
206,207,Lions Rise,22.3398857116699,114.196968078613,SemiQuick,Kowloon,Wong Tai Sin,"8 Muk Lun Street, Wong Tai Sin",Others,,
207,208,Lodgewood,22.3212547302246,114.164367675781,SemiQuick,Kowloon,Yau Tsim Mong,"1131 Canton Rd, Mong Kok",Others,Tesla only,
208,209,Mira Moon Hotel,22.2797737121582,114.17894744873,SemiQuick,Hong Kong Island,Wan Chai,"388 Jaffe Road, Causeway Bay",Others,Tesla only,
209,210,Ocean Park Hong Kong,22.2483463287354,114.174369812012,SemiQuick,Hong Kong Island,Southern,"Ocean Park Road, Wong Chuk Hang",Others,,
210,211,Oi Man Plaza,22.3136730194092,114.177825927734,Quick,Kowloon,Kowloon City,"60 Chung Hau Street, Ho Man Tin",Others,BYD only,
211,212,Olympian City 3,22.3170890808105,114.165306091309,Standard,Kowloon,Yau Tsim Mong,"1 Hoi Wang Rd, Tai Kok Tsui",Others,,
212,213,One Island South,22.2487468719482,114.166770935059,Standard,Hong Kong Island,Southern,"2 Heung Yip Rd, Wong Chuk Hang",Others,,
213,214,One Midtown,22.3725452423096,114.105422973633,Standard,New Territories,Tsuen Wan,"11 Hoi Shing Rd, Tsuen Wan",Others,,
214,215,One Pacific Place,22.2778816223145,114.166595458984,Quick,Hong Kong Island,Central and Western,"88 Queensway, Admiralty",Others,,
215,216,One Peking,22.2958583831787,114.169311523438,SemiQuick,Kowloon,Yau Tsim Mong,"1 Peking Rd, Tsim Sha Tsui",Others,,
216,217,Regal Airport Hotel,22.3194007873535,113.934501647949,SemiQuick,Outlying Islands,Outlying Islands,"9 Cheong Tat Rd, Chek Lap Kok",Others,Tesla only,
217,218,Regal Hong Kong Hotel,22.2789096832275,114.186737060547,SemiQuick,Hong Kong Island,Wan Chai,"88 Yee Wo Street, Causeway Bay",Others,Tesla only,
218,219,Regal Kowloon Hotel,22.2989234924316,114.177551269531,SemiQuick,Kowloon,Yau Tsim Mong,"71 Mody Rd, Tsim Sha Tsui",Others,Tesla only,
219,220,Regal Oriental Hotel,22.3301620483398,114.192749023438,SemiQuick,Kowloon,Kowloon City,"30 Sa Po Road, Kowloon City",Others,Tesla only,
220,221,Regal Riverside Hotel,22.3822288513184,114.196907043457,SemiQuick,New Territories,Shatin,"34-36 Tai Chung Kiu Road, Shatin",Others,Tesla only,
221,222,Royal Garden Hotel,22.298656463623,114.177337646484,SemiQuick,Kowloon,Yau Tsim Mong,"69 Mody Rd, Tsim Sha Tsui",Others,Tesla only,
222,223,Royal Park Hotel,22.3795566558838,114.188835144043,SemiQuick,New Territories,Shatin,"8 Pak Hok Ting Street, Shatin",Others,Tesla only,
223,224,Royal Plaza Hotel,22.3247966766357,114.173179626465,SemiQuick,Kowloon,Yau Tsim Mong,"193 Prince Edward Road West, Kowloon",Others,Tesla only,
224,225,Royal View Hotel,22.3691787719727,114.078132629395,SemiQuick,New Territories,Tsuen Wan,"353 Castle Peak Road, Ting Kau, Tsuen Wan",Others,Tesla only,
225,226,Sun Hung Kai Centre,22.2801170349121,114.176582336426,SemiQuick,Hong Kong Island,Wan Chai,"Harbour Rd, Wan Chai",Others,Tesla only,
226,227,Tai Tong Lychee Garden,22.4135494232178,114.025596618652,Quick,New Territories,Yuen Long,"Tai Tong Shan Rd, Yuen Long",Others,,
227,228,The Pulse,22.2359619140625,114.197891235352,SemiQuick;Quick,Hong Kong Island,Southern,"28 Beach Rd, Repulse Bay",Others,,
228,229,The Wings 2,22.3084621429443,114.260925292969,SemiQuick,New Territories,Sai Kung,"12 Tong Chun Street, Tseung Kwan O",Others,,
229,230,V City,22.3958740234375,113.97184753418,SemiQuick,New Territories,Tuen Mun,"83 Heung Sze Wui Road, Tuen Mun",Others,,
230,231,W Hong Kong,22.3046779632568,114.160247802734,SemiQuick,Kowloon,Yau Tsim Mong,"1 Austin Road West, Kowloon Station, West Kowloon",Others,Tesla only,
231,232,Yoho Mall Phase I,22.4426822662354,114.036911010742,Quick,New Territories,Yuen Long,"9 Yuen Lung Street, Yuen Long",Others,,
232,233,Yoho Mall Phase II,22.4456615447998,114.033630371094,Quick,New Territories,Yuen Long,"8 Long Yat Road, Yuen Long",Others,,
233,234,Heung Yee Kuk Building,22.3903503417969,114.206146240234,Quick,New Territories,Shatin,"30 On Muk Street, Shek Mun, Shatin, N.T.",CLP,"16, 17",/EV/PublishingImages/Station%20Photos/Heung%20Yee%20Kuk.jpg
234,235,Sunshine City Phase 4,22.4242649078369,114.233268737793,Quick,New Territories,Shatin,"26 On Shing Street, Ma On Shan, N.T.",CLP,"268, 269, 283, 284",/EV/PublishingImages/Station%20Photos/Sunshine%20City.jpg
235,236,Jockey Club Kau Sai Chau Golf Course Public Car Park,22.3847637176514,114.276702880859,Quick,New Territories,Sai Kung,"Jockey Club Kau Sai Chau Golf Course Public Car Park, G/F, 18 Wai Man Road, Sai Kung",CLP,1-3,/EV/PublishingImages/Station%20Photos/Kau%20Sai%20Chau.JPG
236,237,Wah Sum Car Park,22.486665725708,114.143257141113,Quick,New Territories,North,"Wah Sum Shopping Centre, 18 Yat Ming Road, Fanling, New Territories",CLP,3-5,/EV/PublishingImages/Station%20Photos/Wah%20Sum.JPG
237,238,Cheung On Estate,22.360803604126,114.104461669922,Quick,New Territories,Kwai Tsing,"L1/F, Cheung On Estate Carpark, 1 Tam Kon Shan Road, Nga Ying Chau, Tsing Yi, N.T.",CLP,"P119, P120",/EV/PublishingImages/Station%20Photos/Cheung%20On.jpg
238,239,Ocean Terminal,22.2956142425537,114.169326782227,Quick,Kowloon,Yau Tsim Mong,"Ocean Terminal Carpark (Harbour City), 4/F
3-27 Canton Rd, Tsimshatsui, Kln",CLP,"1248-1249, 1349",/EV/PublishingImages/common/map/map_thumb/Entrance_Ocean%20Terminal_large.jpg
